ONEWEB-0271             
1 48989U 21060Y   25118.45542872  .00000054  00000+0  10876-3 0  9994
2 48989  87.9020 311.4408 0001517  84.0743 276.0560 13.16596741185099
ONEWEB-0272             
1 48990U 21060Z   25118.93357260  .00000015  00000+0  48822-5 0  9995
2 48990  87.9020 311.3771 0001575  84.5040 275.6270 13.16592308186406
ONEWEB-0273             
1 48991U 21060AA  25118.49975520 -.00000395  00000+0 -10663-2 0  9994
2 48991  87.9020 311.4490 0001522  91.6920 268.4385 13.16594054185028
ONEWEB-0274             
1 48992U 21060AB  25118.82910676  .00000078  00000+0  17031-3 0  9996
2 48992  87.9027 311.4182 0001855  78.2347 281.8992 13.16594374185104
ONEWEB-0275             
1 48993U 21060AC  25118.51401393  .00000084  00000+0  18537-3 0  9993
2 48993  87.9019 311.4401 0001644  85.2549 274.8770 13.16596046184998
ONEWEB-0276             
1 48994U 21060AD  25118.92724933  .00000028  00000+0  40931-4 0  9999
2 48994  87.9022 311.3543 0001462  91.2387 268.8911 13.16592676185068
ONEWEB-0277             
1 48995U 21060AE  25118.93991421 -.00000044  00000+0 -14845-3 0  9993
2 48995  87.9018 311.3887 0001388  79.3538 280.7749 13.16592714186344
ONEWEB-0278             
1 48996U 21060AF  25118.93040809  .00000018  00000+0  13912-4 0  9993
2 48996  87.9021 311.3505 0001756  97.8965 262.2365 13.16592472186490
ONEWEB-0279             
1 48997U 21060AG  25118.48234080 -.00000273  00000+0 -74724-3 0  9992
2 48997  87.9017 311.4358 0001548  78.8669 281.2636 13.16592963185050
ONEWEB-0280             
1 48998U 21060AH  25118.80139450 -.00000030  00000+0 -11229-3 0  9996
2 48998  87.9020 311.3782 0001393  96.1191 264.0099 13.16593735185034
ONEWEB-0281             
1 48999U 21060AJ  25118.50292902 -.00000009  00000+0 -58019-4 0  9991
2 48999  87.9019 311.4362 0001835  85.6314 274.5027 13.16595717185061
ONEWEB-0282             
1 49000U 21060AK  25118.91299249  .00000087  00000+0  19479-3 0  9991
2 49000  87.9017 311.3705 0001537  90.0583 270.0724 13.16592956186417
ONEWEB-0283             
1 49001U 21060AL  25118.82591552  .00000144  00000+0  34204-3 0  9991
2 49001  87.9016 311.3913 0001588  84.0847 276.0465 13.16592682185097
ONEWEB-0284             
1 49002U 21060AM  25118.51558751  .00000061  00000+0  12582-3 0  9995
2 49002  87.9011 311.4186 0001685 100.5810 259.5511 13.16596306185037
ONEWEB-0285             
1 49075U 21075A   25118.33013335  .00000348  00000+0  93105-3 0  9993
2 49075  87.8859  73.1954 0001953  84.0949 276.0402 13.12442465180791
ONEWEB-0286             
1 49076U 21075B   25118.83992674 -.00000054  00000+0 -18776-3 0  9998
2 49076  87.8881  73.0986 0002211  83.6616 276.4764 13.11891622180219
ONEWEB-0287             
1 49077U 21075C   25118.47924226 -.00000007  00000+0 -51775-4 0  9992
2 49077  87.9032  88.4427 0002396  91.6952 268.4454 13.17650271179017
ONEWEB-0288             
1 49078U 21075D   25118.82146403 -.00000642  00000+0 -18187-2 0  9998
2 49078  87.8857  73.0922 0001984  87.2349 272.9007 13.12442674180832
ONEWEB-0289             
1 49079U 21075E   25118.88760654  .00000031  00000+0  45955-4 0  9990
2 49079  87.9031  88.3926 0001713  98.5124 261.6202 13.17650046179645
ONEWEB-0290             
1 49080U 21075F   25118.41511420  .00000017  00000+0  10623-4 0  9994
2 49080  87.9029  88.4431 0001383  94.2392 265.8897 13.17650140178997
ONEWEB-0291             
1 49081U 21075G   25118.85554383  .00000006  00000+0 -16537-4 0  9997
2 49081  87.9026  88.3609 0002042  92.2217 267.9149 13.17647256179042
ONEWEB-0293             
1 49082U 21075H   25118.88085979 -.00000027  00000+0 -10160-3 0  9990
2 49082  87.9031  88.3856 0001891  87.7390 272.3958 13.17647503179071
ONEWEB-0294             
1 49083U 21075J   25118.82795969 -.00000303  00000+0 -87842-3 0  9990
2 49083  87.8857  73.0900 0001760  97.0941 263.0387 13.12443530180220
ONEWEB-0295             
1 49084U 21075K   25118.87999412 -.00000330  00000+0 -88242-3 0  9990
2 49084  87.9045  88.3725 0002220  94.3353 265.8032 13.17648031179036
ONEWEB-0296             
1 49085U 21075L   25118.80849136 -.00000191  00000+0 -56540-3 0  9992
2 49085  87.8859  73.1018 0002196 100.0879 260.0498 13.12440778180225
ONEWEB-0297             
1 49086U 21075M   25118.83930415 -.00000018  00000+0 -85816-4 0  9994
2 49086  87.8866  73.1260 0002086  82.6484 277.4881 13.12441684180830
ONEWEB-0298             
1 49087U 21075N   25118.88437223  .00000052  00000+0  10052-3 0  9994
2 49087  87.9031  88.3824 0002228  86.3359 273.8028 13.17649653179067
ONEWEB-0299             
1 49088U 21075P   25118.43030389  .00000043  00000+0  76752-4 0  9998
2 49088  87.9026  88.4289 0002230  85.6051 274.5335 13.17650580178982
ONEWEB-0300             
1 49089U 21075Q   25118.83119505 -.00000504  00000+0 -14367-2 0  9997
2 49089  87.8855  73.0884 0002121  73.4001 286.7360 13.12443457180852
ONEWEB-0301             
1 49090U 21075R   25118.81499151 -.00000350  00000+0 -10095-2 0  9998
2 49090  87.8855  73.0968 0002018  73.9499 286.1851 13.12442735180215
ONEWEB-0302             
1 49091U 21075S   25118.80199413 -.00000006  00000+0 -53404-4 0  9997
2 49091  87.8857  73.1005 0001848  94.5853 265.5486 13.12444338180197
ONEWEB-0304             
1 49092U 21075T   25119.16435275  .00000001  00000+0 -29430-4 0  9993
2 49092  87.9032  88.3105 0002141  87.8906 272.2471 13.17649802180034
ONEWEB-0305             
1 49093U 21075U   25118.85385613  .00000019  00000+0  16749-4 0  9996
2 49093  87.9029  88.3510 0002411  90.5810 269.5598 13.17649578179044
ONEWEB-0308             
1 49094U 21075V   25118.87176680  .00000235  00000+0  61773-3 0  9997
2 49094  87.8856  73.0821 0001966  80.4049 279.7301 13.12442168180211
ONEWEB-0309             
1 49095U 21075W   25118.47754809  .00000045  00000+0  83505-4 0  9996
2 49095  87.9032  88.4409 0001760  97.8705 262.2627 13.17647433178968
ONEWEB-0310             
1 49096U 21075X   25118.35268089 -.00000315  00000+0 -91135-3 0  9993
2 49096  87.8866  73.2226 0001881  85.8191 274.3152 13.12440427180770
ONEWEB-0311             
1 49097U 21075Y   25118.86398524 -.00000011  00000+0 -62700-4 0  9998
2 49097  87.9032  88.3652 0002439  88.6491 271.4920 13.17648159179069
ONEWEB-0312             
1 49098U 21075Z   25118.87916542  .00000034  00000+0  54776-4 0  9993
2 49098  87.9030  88.3931 0002163  95.8249 264.3130 13.17648554179044
ONEWEB-0313             
1 49099U 21075AA  25118.42851932 -.00003031  00000+0 -78450-2 0  9991
2 49099  87.9034  88.4994 0002328  86.5252 273.6146 13.17623122178978
ONEWEB-0314             
1 49100U 21075AB  25118.85048373  .00000033  00000+0  51891-4 0  9997
2 49100  87.9028  88.3478 0002234  94.4607 265.6780 13.17649435179003
ONEWEB-0315             
1 49101U 21075AC  25118.86040955  .00000472  00000+0  12770-2 0  9995
2 49101  87.8857  73.0747 0002393  82.4822 277.6578 13.12444287180828
ONEWEB-0316             
1 49102U 21075AD  25118.79796304  .00000000  00000+0 -31844-4 0  9997
2 49102  87.9140  57.8284 0002192  81.6144 278.5236 13.18686771182595
ONEWEB-0317             
1 49103U 21075AE  25118.85394492  .00000400  00000+0  10753-2 0  9994
2 49103  87.8857  73.0908 0001203  93.0838 267.0429 13.12444549180844
ONEWEB-0318             
1 49104U 21075AF  25118.79480636  .00000016  00000+0  89648-5 0  9999
2 49104  87.9140  57.8148 0002298  81.4452 278.6940 13.18686595182556
ONEWEB-0319             
1 49105U 21075AG  25118.86567091  .00000016  00000+0  77996-5 0  9992
2 49105  87.9031  88.3898 0002452  89.3181 270.8231 13.17649869179044
ONEWEB-0323             
1 49106U 21075AH  25118.84417852  .00000117  00000+0  28892-3 0  9991
2 49106  87.8858  73.0785 0002707  87.6448 272.4990 13.12445280180203
ONEWEB-0329             
1 49107U 21075AJ  25118.41848658  .00000045  00000+0  82676-4 0  9998
2 49107  87.9030  88.4837 0002175  89.0992 271.0388 13.17647533178960
ONEWEB-0330             
1 49108U 21075AK  25118.87579024  .00000008  00000+0 -13719-4 0  9999
2 49108  87.9031  88.3947 0002034  92.3199 267.8166 13.17648763179068
ONEWEB-0292             
1 49186U 21083A   25118.30238923  .00000212  00000+0  54652-3 0  9998
2 49186  87.8992  42.7132 0002084  78.4218 281.7145 13.13470848176467
ONEWEB-0303             
1 49187U 21083B   25118.79164679  .00000011  00000+0 -36016-5 0  9992
2 49187  87.9138  57.8174 0002182  79.8636 280.2742 13.18687305175360
ONEWEB-0306             
1 49188U 21083C   25119.08566423  .00000084  00000+0  18123-3 0  9995
2 49188  87.9142  57.7433 0001824  82.9973 277.1366 13.18686686176723
ONEWEB-0307             
1 49189U 21083D   25118.75351780 -.00000020  00000+0 -89593-4 0  9999
2 49189  87.8994  42.6266 0001586  84.0554 276.0756 13.13469533176522
ONEWEB-0320             
1 49190U 21083E   25119.09197928  .00000078  00000+0  16527-3 0  9998
2 49190  87.9145  57.7709 0001985  81.6164 278.5193 13.18687045176689
ONEWEB-0321             
1 49191U 21083F   25119.19007608  .00000003  00000+0 -24382-4 0  9993
2 49191  87.9303 356.8698 0001452  79.9691 280.1606 13.20772349183467
ONEWEB-0322             
1 49192U 21083G   25118.74927356 -.00000100  00000+0 -30826-3 0  9993
2 49192  87.8992  42.6171 0001517  75.5721 284.5576 13.13468107176513
ONEWEB-0324             
1 49193U 21083H   25119.07775200  .00000021  00000+0  19574-4 0  9998
2 49193  87.9138  57.7532 0002064  87.3581 272.7787 13.18687699176706
ONEWEB-0325             
1 49194U 21083J   25118.77899435  .00000012  00000+0 -22826-5 0  9998
2 49194  87.9139  57.8300 0001912  79.0398 281.0949 13.18685983175398
ONEWEB-0326             
1 49195U 21083K   25118.79334746  .00000023  00000+0  24478-4 0  9995
2 49195  87.9138  57.8185 0002406  80.5159 279.6245 13.18685879175385
ONEWEB-0327             
1 49196U 21083L   25118.79308425  .00000007  00000+0 -14445-4 0  9997
2 49196  87.9138  57.8468 0002277  78.2068 281.9319 13.18685317175407
